{
  "type": "FeatureCollection",
  "features": [
    {
      "type": "Feature",
      "properties": {
        "norad_id": 30674,
        "name": "FENGYUN 1C DEB",
        "group": "fengyun-1c-debris",
        "lat": 80.45508298285861,
        "lon": 54.86430672056827,
        "alt_km": 582.5426746973635,
        "timestamp": "2025-12-26T16:33:55.849347+00:00",
        "meta_object_name": "FENGYUN 1C DEB",
        "meta_object_id": "1999-025AQG",
        "meta_epoch": "2025-12-26T04:55:34.413024",
        "meta_mean_motion": 14.97820235,
        "meta_eccentricity": 0.0024207,
        "meta_inclination": 98.9379,
        "meta_ra_of_asc_node": 164.9252,
        "meta_arg_of_pericenter": 265.9457,
        "meta_mean_anomaly": 93.8994,
        "meta_ephemeris_type": 0,
        "meta_classification_type": "U",
        "meta_norad_cat_id": 30674,
        "meta_element_set_no": 999,
        "meta_rev_at_epoch": 97553,
        "meta_bstar": 0.0076145827,
        "meta_mean_motion_dot": 0.00091073,
        "meta_mean_motion_ddot": 0,
        "tle_line1": "1 30674U 99025AQG 25360.20525941  .00091073  00000+0  76146-2 0  9994",
        "tle_line2": "2 30674  98.9379 164.9252 0024207 265.9457  93.8994 14.97820235975531"
      },
      "geometry": {
        "type": "Point",
        "coordinates": [
          54.86430672056827,
          80.45508298285861
        ]
      }
    },
    {
      "type": "Feature",
      "properties": {
        "norad_id": 30675,
        "name": "FENGYUN 1C DEB",
        "group": "fengyun-1c-debris",
        "lat": -69.9861772135642,
        "lon": 104.86169714122553,
        "alt_km": 843.0109784046726,
        "timestamp": "2025-12-26T16:33:55.849357+00:00",
        "meta_object_name": "FENGYUN 1C DEB",
        "meta_object_id": "1999-025AQH",
        "meta_epoch": "2025-12-26T05:25:05.315808",
        "meta_mean_motion": 14.27505797,
        "meta_eccentricity": 0.00534967,
        "meta_inclination": 98.7537,
        "meta_ra_of_asc_node": 79.3717,
        "meta_arg_of_pericenter": 131.0193,
        "meta_mean_anomaly": 291.2702,
        "meta_ephemeris_type": 0,
        "meta_classification_type": "U",
        "meta_norad_cat_id": 30675,
        "meta_element_set_no": 999,
        "meta_rev_at_epoch": 97084,
        "meta_bstar": 0.0016300226,
        "meta_mean_motion_dot": 4.024e-05,
        "meta_mean_motion_ddot": 0,
        "tle_line1": "1 30675U 99025AQH 25360.22575597  .00004024  00000+0  16300-2 0  9995",
        "tle_line2": "2 30675  98.7537  79.3717 0053496 131.0193 291.2702 14.27505797970849"
      },
      "geometry": {
        "type": "Point",
        "coordinates": [
          104.86169714122553,
          -69.9861772135642
        ]
      }
    },
    {
      "type": "Feature",
      "properties": {
        "norad_id": 30676,
        "name": "FENGYUN 1C DEB",
        "group": "fengyun-1c-debris",
        "lat": 78.44065504582494,
        "lon": 139.47373119724622,
        "alt_km": 852.8294629536249,
        "timestamp": "2025-12-26T16:33:55.849366+00:00",
        "meta_object_name": "FENGYUN 1C DEB",
        "meta_object_id": "1999-025AQJ",
        "meta_epoch": "2025-12-24T11:46:03.436320",
        "meta_mean_motion": 13.73943621,
        "meta_eccentricity": 0.04719218,
        "meta_inclination": 98.2658,
        "meta_ra_of_asc_node": 182.8553,
        "meta_arg_of_pericenter": 16.4578,
        "meta_mean_anomaly": 345.1319,
        "meta_ephemeris_type": 0,
        "meta_classification_type": "U",
        "meta_norad_cat_id": 30676,
        "meta_element_set_no": 999,
        "meta_rev_at_epoch": 94085,
        "meta_bstar": 0.00067072182,
        "meta_mean_motion_dot": 1.377e-05,
        "meta_mean_motion_ddot": 0,
        "tle_line1": "1 30676U 99025AQJ 25358.49031755  .00001377  00000+0  67072-3 0  9996",
        "tle_line2": "2 30676  98.2658 182.8553 0471921  16.4578 345.1319 13.73943621940850"
      },
      "geometry": {
        "type": "Point",
        "coordinates": [
          139.47373119724622,
          78.44065504582494
        ]
      }
    },
    {
      "type": "Feature",
      "properties": {
        "norad_id": 30677,
        "name": "FENGYUN 1C DEB",
        "group": "fengyun-1c-debris",
        "lat": 68.72237212015898,
        "lon": -112.86607535671492,
        "alt_km": 728.788690083019,
        "timestamp": "2025-12-26T16:33:55.849375+00:00",
        "meta_object_name": "FENGYUN 1C DEB",
        "meta_object_id": "1999-025AQK",
        "meta_epoch": "2025-12-26T02:59:32.479008",
        "meta_mean_motion": 14.38233125,
        "meta_eccentricity": 0.00666484,
        "meta_inclination": 98.2538,
        "meta_ra_of_asc_node": 44.7061,
        "meta_arg_of_pericenter": 164.3467,
        "meta_mean_anomaly": 259.3951,
        "meta_ephemeris_type": 0,
        "meta_classification_type": "U",
        "meta_norad_cat_id": 30677,
        "meta_element_set_no": 999,
        "meta_rev_at_epoch": 98172,
        "meta_bstar": 0.001030534,
        "meta_mean_motion_dot": 3.173e-05,
        "meta_mean_motion_ddot": 0,
        "tle_line1": "1 30677U 99025AQK 25360.12468147  .00003173  00000+0  10305-2 0  9991",
        "tle_line2": "2 30677  98.2538  44.7061 0066648 164.3467 259.3951 14.38233125981726"
      },
      "geometry": {
        "type": "Point",
        "coordinates": [
          -112.86607535671492,
          68.72237212015898
        ]
      }
    },
    {
      "type": "Feature",
      "properties": {
        "norad_id": 30678,
        "name": "FENGYUN 1C DEB",
        "group": "fengyun-1c-debris",
        "lat": -19.33815334021204,
        "lon": -34.87165436306883,
        "alt_km": 860.2332113298653,
        "timestamp": "2025-12-26T16:33:55.849384+00:00",
        "meta_object_name": "FENGYUN 1C DEB",
        "meta_object_id": "1999-025AQL",
        "meta_epoch": "2025-12-25T20:41:11.691168",
        "meta_mean_motion": 14.24329193,
        "meta_eccentricity": 0.00709324,
        "meta_inclination": 99.0798,
        "meta_ra_of_asc_node": 321.0556,
        "meta_arg_of_pericenter": 192.0009,
        "meta_mean_anomaly": 223.3605,
        "meta_ephemeris_type": 0,
        "meta_classification_type": "U",
        "meta_norad_cat_id": 30678,
        "meta_element_set_no": 999,
        "meta_rev_at_epoch": 96062,
        "meta_bstar": 0.0028418555,
        "meta_mean_motion_dot": 6.698e-05,
        "meta_mean_motion_ddot": 0,
        "tle_line1": "1 30678U 99025AQL 25359.86194087  .00006698  00000+0  28419-2 0  9990",
        "tle_line2": "2 30678  99.0798 321.0556 0070932 192.0009 223.3605 14.24329193960624"
      },
      "geometry": {
        "type": "Point",
        "coordinates": [
          -34.87165436306883,
          -19.33815334021204
        ]
      }
    },
    {
      "type": "Feature",
      "properties": {
        "norad_id": 30679,
        "name": "FENGYUN 1C DEB",
        "group": "fengyun-1c-debris",
        "lat": 28.157361661679907,
        "lon": 47.24146218203453,
        "alt_km": 841.1543567079034,
        "timestamp": "2025-12-26T16:33:55.849393+00:00",
        "meta_object_name": "FENGYUN 1C DEB",
        "meta_object_id": "1999-025AQM",
        "meta_epoch": "2025-12-26T02:39:37.423584",
        "meta_mean_motion": 13.79734113,
        "meta_eccentricity": 0.01709817,
        "meta_inclination": 99.3802,
        "meta_ra_of_asc_node": 51.743,
        "meta_arg_of_pericenter": 43.5099,
        "meta_mean_anomaly": 349.331,
        "meta_ephemeris_type": 0,
        "meta_classification_type": "U",
        "meta_norad_cat_id": 30679,
        "meta_element_set_no": 999,
        "meta_rev_at_epoch": 94704,
        "meta_bstar": 0.0006088305,
        "meta_mean_motion_dot": 6.59e-06,
        "meta_mean_motion_ddot": 0,
        "tle_line1": "1 30679U 99025AQM 25360.11084981  .00000659  00000+0  60883-3 0  9995",
        "tle_line2": "2 30679  99.3802  51.7430 0170981  43.5099 349.3310 13.79734113947040"
      },
      "geometry": {
        "type": "Point",
        "coordinates": [
          47.24146218203453,
          28.157361661679907
        ]
      }
    },
    {
      "type": "Feature",
      "properties": {
        "norad_id": 30680,
        "name": "FENGYUN 1C DEB",
        "group": "fengyun-1c-debris",
        "lat": 27.789217840315835,
        "lon": -131.85370488876745,
        "alt_km": 810.8178079499912,
        "timestamp": "2025-12-26T16:33:55.849402+00:00",
        "meta_object_name": "FENGYUN 1C DEB",
        "meta_object_id": "1999-025AQN",
        "meta_epoch": "2025-12-26T01:40:31.562400",
        "meta_mean_motion": 13.56226054,
        "meta_eccentricity": 0.03356374,
        "meta_inclination": 99.6305,
        "meta_ra_of_asc_node": 42.4054,
        "meta_arg_of_pericenter": 134.743,
        "meta_mean_anomaly": 228.1554,
        "meta_ephemeris_type": 0,
        "meta_classification_type": "U",
        "meta_norad_cat_id": 30680,
        "meta_element_set_no": 999,
        "meta_rev_at_epoch": 92434,
        "meta_bstar": 0.0043754875,
        "meta_mean_motion_dot": 4.38e-05,
        "meta_mean_motion_ddot": 0,
        "tle_line1": "1 30680U 99025AQN 25360.06980975  .00004380  00000+0  43755-2 0  9992",
        "tle_line2": "2 30680  99.6305  42.4054 0335637 134.7430 228.1554 13.56226054924342"
      },
      "geometry": {
        "type": "Point",
        "coordinates": [
          -131.85370488876745,
          27.789217840315835
        ]
      }
    }
  ]
}